JCAT , SatcatLaunch_Tag Piece     , Type     , Name                        , PLName                      , LDate      , Parent      , SDate              , Primary, DDate              , Status Dest   , Owner       , State , Manufacturer, Bus              , Motor       , Mass     , DryMass   , TotMass  , Length, Diamete, Span   , Shape                    , ODate      , Perigee, Apogee, Inc   , OpOrbitOQU AltNames, STATUS, OBJECT_NAME             , OBJECT_ID , EPOCH                     , MEAN_MOTION, ECCENTRICITY, INCLINATION, RA_OF_ASC_NODE, ARG_OF_PERICENTER, MEAN_ANOMALY, EPHEMERIS_TYPE, CLASSIFICATION_TYPE, NORAD_CAT_ID, ELEMENT_SET_NO, REV_AT_EPOCH, BSTAR         , MEAN_MOTION_DOT, MEAN_MOTION_DDOT, LAST_UPDATED       , DATA_SOURCE               , TLE_LINE1                                                            , TLE_LINE2                                                            , N2YO_SAT_NAME              , TLE_FETCHED
41589, 41589 2016-038   2016-038B , P        , EUTELSAT 117 WEST B         , EUTELSAT 117 West B         , 2016 Jun 15, S41590      , 2016 Jun 15 1459   , Earth  , -                  , O      -      , EUTAM       , MX    , ADST        , BSS-702SP        , XIPS-25     , 1963     , 1500    ? , 1963     , 4.8   , 2.1    , 32.6   , Box + 2 Pan              , 2016 Jun 17, 394    , 62755 , 24.64 , HEO    -           , ACTIVE, EUTELSAT 117 WEST B     , 2016-038B , 2025-10-03T06:40:56.263872,  1.00271839, 2.646e-05   ,      0.0234,        40.1613,          221.833 ,      93.4695,            0.0, U                  ,      41589.0,          999.0,       3408.0, 0.0           , -1.1e-07       , 0.0             , 2025-10-04 23:19:22, planet4589.org + Celestrak, 1 41589U 16038B   25276.27842898 -.00000011  00000-0  00000-0 0  9998, 2 41589   0.0234  40.1613 0000265 221.8330  93.4695  1.00271839 34087, EUTELSAT 117W B            , YES
41591, 41591 2016-039   2016-039A , P        , BRISat                      , BRISat                      , 2016 Jun 18, S41593      , 2016 Jun 18 2220   , Earth  , -                  , O      -      , BRID        , ID    , SSL         , SSL-1300         , R-4D        , 3540     , 2000    ? , 3540     , 3.0  ?, 2.8  ? , 31.0  ?, Box+2 pan + dish         , 2016 Jul 19, 35784  , 35792 , 0.02  , GEO/S  -           , ACTIVE, BRISAT                  , 2016-039A , 2025-10-03T09:56:38.587200,  1.00271683, 0.00022918  ,      0.0146,       240.1937,          302.1805,     129.6712,            0.0, U                  ,      41591.0,          999.0,       3403.0, 0.0           , -1.96e-06      , 0.0             , 2025-10-04 23:19:22, planet4589.org + Celestrak, 1 41591U 16039A   25276.41433550 -.00000196  00000-0  00000-0 0  9993, 2 41591   0.0146 240.1937 0002292 302.1805 129.6712  1.00271683 34039, BRISAT                     , YES
41592, 41592 2016-039   2016-039B , P        , Echostar XVIII              , Echostar 18                 , 2016 Jun 18, S41594      , 2016 Jun 18 2207   , Earth  , -                  , O      -      , DISH        , US    , SSL         , SSL-1300         , R-4D-15-300 , 6300     , 3500    ? , 6300     , 5.6  ?, 2.8  ? , 31.0  ?, Box+2 panels             , 2016 Jul 19, 35776  , 35797 , 0.05  , GEO/S  -           , ACTIVE, ECHOSTAR 18             , 2016-039B , 2025-10-03T11:38:36.172032,  1.0026803 , 0.00016745  ,      0.0245,       184.9034,            8.1849,     292.6563,            0.0, U                  ,      41592.0,          999.0,       3405.0, 0.0           , 0.0            , 0.0             , 2025-10-04 23:19:22, planet4589.org + Celestrak, 1 41592U 16039B   25277.51160078  .00000000  00000-0  00000+0 0  9990, 2 41592   0.0241 189.1148 0001665   6.2029 300.9584  1.00266606 34068, ECHOSTAR XVIII             , YES
41599, 41599 2016-040   2016-040A , P        , Cartosat-2 Series Satellite , Cartosat-2C                 , 2016 Jun 22, S41621      , 2016 Jun 22 0412   , Earth  , -                  , O      -      , ISRO        , IN    , ISRO        , IRS-2            , AOCS        , 727      , 600    ?  , 727      , 2.0  ?, 2.0  ? , 6.0  ? , Hex Cyl + 2 Pan          , 2016 Jun 24, 500    , 518   , 97.51 , LLEO/S -           , ACTIVE, CARTOSAT-2C             , 2016-040A , 2025-10-02T11:10:17.350176, 15.19245084, 0.0010739   ,     97.4105,       333.5816,          314.7233,      45.3127,            0.0, U                  ,      41599.0,          999.0,      51458.0, 0.00088893    , 0.00018725     , 0.0             , 2025-10-04 23:19:22, planet4589.org + Celestrak, 1 41599U 16040A   25277.50725938  .00008985  00000-0  42847-3 0  9999, 2 41599  97.4106 335.5848 0010617 306.9247  53.1014 15.19271236514897, CARTOSAT 2C                , YES
41601, 41601 2016-040   2016-040C , P        , SkySat C1                   , SkySat C1 (3)               , 2016 Jun 22, S41620      , 2016 Jun 22 0414   , Earth  , -                  , O      -      , TBELLA      , US    , SSL         , SkySat-Gen2      , -           , 110      , 110       , 110      , 1.2  ?, 0.5  ? , 0.5  ? , Box                      , 2016 Jun 24, 499    , 515   , 97.51 , LLEO/S -           , ACTIVE, SKYSAT-C1               , 2016-040C , 2025-10-03T08:38:39.630624, 15.30807472, 0.00021197  ,     96.9944,       317.3841,          177.5057,     182.6196,            0.0, U                  ,      41601.0,          999.0,      51850.0, 0.00060952521 , 0.000181       , 0.0             , 2025-10-04 23:19:22, planet4589.org + Celestrak, 1 41601U 16040C   25276.36018091  .00018100  00000-0  60953-3 0  9999, 2 41601  96.9944 317.3841 0002120 177.5057 182.6196 15.30807472518508, SKYSAT C1                  , YES
41603, 41603 2016-040   2016-040E , P        , LAPAN-A3                    , LAPAN-A3                    , 2016 Jun 22, S41620      , 2016 Jun 22 0413   , Earth  , -                  , O      -      , LAPAN       , ID    , LAPAN       , Tubsat           , -           , 120      , 120       , 120      , 0.5   , 0.2    , 0.5    , Box                      , 2016 Jun 24, 500    , 517   , 97.51 , LLEO/S -           , ACTIVE, LAPAN-A3                , 2016-040E , 2025-10-03T15:16:40.811808, 15.30761252, 0.00097999  ,     97.1425,       276.7812,          204.6629,     155.4145,            0.0, U                  ,      41603.0,          999.0,      51553.0, 0.00025830769 , 7.617e-05      , 0.0             , 2025-10-04 23:19:22, planet4589.org + Celestrak, 1 41603U 16040E   25277.55175249  .00007100  00000-0  24085-3 0  9996, 2 41603  97.1423 277.6623 0009917 201.0900 158.9934 15.30773822515674, LAPAN A3                   , YES
41604, 41604 2016-040   2016-040F , P        , BIROS                       , BIROS                       , 2016 Jun 22, S41620      , 2016 Jun 22 0413   , Earth  , -                  , O      -      , DLR2        , D     , ASTFN/KTHR  , TET-X            , -           , 130      , 130       , 130      , 0.7   , 0.6    , 1.8    , Box+ 2 pan               , 2016 Jun 24, 500    , 516   , 97.51 , LLEO/S -           , ACTIVE, BIROS                   , 2016-040F , 2025-10-03T12:31:29.354592, 15.71837873, 0.00061566  ,     97.0803,       306.1935,           98.0328,     262.1635,            0.0, U                  ,      41604.0,          999.0,      51764.0, 0.00069942942 , 0.0009138      , 0.0             , 2025-10-04 23:19:22, planet4589.org + Celestrak, 1 41604U 16040F   25276.52186753  .00091380  00000-0  69943-3 0  9990, 2 41604  97.0803 306.1935 0006157  98.0328 262.1635 15.71837873517648, BIROS                      , YES
41605, 41605 2016-040   2016-040G , P        , M3MSat                      , exactView-7                 , 2016 Jun 22, S41620      , 2016 Jun 22 0414   , Earth  , -                  , O      -      , DND/EXEA    , CA    , COMDH       , MMMS             , -           , 85       , 85        , 85       , 0.8   , 0.6    , 0.8    , Box                      , 2016 Jun 24, 500    , 515   , 97.51 , LLEO/S -           , ACTIVE, M3MSAT                  , 2016-040G , 2025-10-03T13:00:21.259008, 15.7684553 , 0.0006216   ,     97.0692,       303.5678,          111.5416,     248.6514,            0.0, U                  ,      41605.0,          999.0,      51749.0, 0.00083136365 , 0.00135403     , 0.0             , 2025-10-04 23:19:22, planet4589.org + Celestrak, 1 41605U 16040G   25276.54191272  .00135403  00000-0  83136-3 0  9990, 2 41605  97.0692 303.5678 0006216 111.5416 248.6514 15.76845530517497, M3MSAT                     , YES
41622, 41622 2016-041   2016-041A , P        , MUOS 5                      , MUOS SV 3                   , 2016 Jun 24, S41623      , 2016 Jun 24 1723   , Earth  , -                  , O      -      , SPAWSD      , US    , LMSS/LMCSS  , A2100            , BT-4        , 6800     , 3800      , 6800     , 7.9   , 4.3    , 28.7   , Box + 2 Pan + Dish       , 2016 Jul 29, 15268  , 35789 , 9.80  , MEO    -           , ACTIVE, MUOS-5                  , 2016-041A , 2025-10-03T13:08:19.953024,  1.00273311, 0.02020029  ,      2.7785,       298.0534,          260.7158,     265.863 ,            0.0, U                  ,      41622.0,          999.0,       3451.0, 0.0           , -1.27e-06      , 0.0             , 2025-10-04 23:19:22, planet4589.org + Celestrak, 1 41622U 16041A   25277.47522051 -.00000126  00000-0  00000+0 0  9995, 2 41622   2.7763 298.0619 0202043 260.7639 240.7221  1.00273179 34523, MUOS 5                     , YES
